[
    {
      "name": "Viennia Sturm",
      "address": "",
      "zip": "17565",
      "id": "ea0c4"
    },
    {
      "name": "Amerah Lang",
      "address": "5037 Providence Bouled",
      "zip": "44109",
      "id": "8d322"
    },
    {
      "name": "Wendolyn Sweat",
      "address": "1521 Gem Avenue",
      "zip": "77701",
      "id": "a6b3b"
    },
    {
      "name": null,
      "address": "3132 Rowan Avenue",
      "zip": "09368",
      "id": "84701"
    },
    {
      "name": "Dorrin Castle",
      "address": "1435 Locust Street",
      "zip": "35219",
      "id": "d9850"
    },
    {
      "name": "Clarice Collier",
      "address": "9986 Vale Passage",
      "zip": null,
      "id": "e6f19"
    },
    {
      "name": "Celia Sparrow",
      "address": "9644 Bury Street",
      "zip": "28664",
      "id": "85955"
    },
    {
      "name": "Hermonah Shephard",
      "address": "9834 Greenfield Street",
      "zip": "81645",
      "id": "2ef5a"
    },
    {
      "name": "",
      "address": null,
      "zip": "78159",
      "id": "01190"
    },
    {
      "name": "Aciano Stoddard",
      "address": "8056 Victory Way",
      "zip": "10925",
      "id": "2d4b6"
    },
    {
      "name": null,
      "address": "9481 Ivy Lane",
      "zip": "22748",
      "id": "e0701"
    },
    {
      "name": "Sharmaine Crenshaw",
      "address": null,
      "zip": "00000",
      "id": "53a6a"
    },
    {
      "name": "Schmuela Finley",
      "address": "6990 Feathers Avenue",
      "zip": "60136",
      "id": "2e3e3"
    },
    {
      "name": "Tonnya Pate",
      "address": "3623 Sunny Row",
      "zip": "",
      "id": "0d2c9"
    },
    {
      "name": null,
      "address": "2964 Bury Street",
      "zip": "30564",
      "id": "42b81"
    },
    {
      "name": "Cranlee Kimbrell",
      "address": "3645 Crimson Avenue",
      "zip": "39647",
      "id": "1561b"
    },
    {
      "name": null,
      "address": "5079 Clove Lane",
      "zip": "05904",
      "id": "48193"
    },
    {
        "name": "Cranlee Kimbrell",
        "address": "3645 Crimson Avenue",
        "zip": "39647",
        "id": "2561b"
    }
  ]